<?xml version="1.0" encoding="UTF-8"?>
<ndm xmlns:xsi="http://www.w3.org/2001/XMLSchema-instance" xsi:noNamespaceSchemaLocation="https://sanaregistry.org/r/ndmxml_unqualified/ndmxml-2.0.0-master-2.0.xsd">
<omm id="CCSDS_OMM_VERS" version="2.0">
<header><CREATION_DATE/><ORIGINATOR/></header><body><segment><metadata><OBJECT_NAME>ORBCOMM FM25</OBJECT_NAME><OBJECT_ID>1998-053E</OBJECT_ID><CENTER_NAME>EARTH</CENTER_NAME><REF_FRAME>TEME</REF_FRAME><TIME_SYSTEM>UTC</TIME_SYSTEM><MEAN_ELEMENT_THEORY>SGP4</MEAN_ELEMENT_THEORY></metadata><data><meanElements><EPOCH>2024-09-26T12:30:35.059104</EPOCH><MEAN_MOTION>14.36449130</MEAN_MOTION><ECCENTRICITY>.0002519</ECCENTRICITY><INCLINATION>45.0066</INCLINATION><RA_OF_ASC_NODE>76.1818</RA_OF_ASC_NODE><ARG_OF_PERICENTER>1.6688</ARG_OF_PERICENTER><MEAN_ANOMALY>358.4168</MEAN_ANOMALY></meanElements><tleParameters><EPHEMERIS_TYPE>0</EPHEMERIS_TYPE><CLASSIFICATION_TYPE>U</CLASSIFICATION_TYPE><NORAD_CAT_ID>25479</NORAD_CAT_ID><ELEMENT_SET_NO>999</ELEMENT_SET_NO><REV_AT_EPOCH>35980</REV_AT_EPOCH><BSTAR>.12886E-2</BSTAR><MEAN_MOTION_DOT>.3673E-4</MEAN_MOTION_DOT><MEAN_MOTION_DDOT>0</MEAN_MOTION_DDOT></tleParameters></data></segment></body></omm>
<omm id="CCSDS_OMM_VERS" version="2.0">
<header><CREATION_DATE/><ORIGINATOR/></header><body><segment><metadata><OBJECT_NAME>ORBCOMM FM26</OBJECT_NAME><OBJECT_ID>1998-053F</OBJECT_ID><CENTER_NAME>EARTH</CENTER_NAME><REF_FRAME>TEME</REF_FRAME><TIME_SYSTEM>UTC</TIME_SYSTEM><MEAN_ELEMENT_THEORY>SGP4</MEAN_ELEMENT_THEORY></metadata><data><meanElements><EPOCH>2024-09-26T12:24:50.983200</EPOCH><MEAN_MOTION>14.35762383</MEAN_MOTION><ECCENTRICITY>.000465</ECCENTRICITY><INCLINATION>45.0068</INCLINATION><RA_OF_ASC_NODE>70.9639</RA_OF_ASC_NODE><ARG_OF_PERICENTER>29.0669</ARG_OF_PERICENTER><MEAN_ANOMALY>331.0437</MEAN_ANOMALY></meanElements><tleParameters><EPHEMERIS_TYPE>0</EPHEMERIS_TYPE><CLASSIFICATION_TYPE>U</CLASSIFICATION_TYPE><NORAD_CAT_ID>25480</NORAD_CAT_ID><ELEMENT_SET_NO>999</ELEMENT_SET_NO><REV_AT_EPOCH>35983</REV_AT_EPOCH><BSTAR>.11184E-2</BSTAR><MEAN_MOTION_DOT>.3124E-4</MEAN_MOTION_DOT><MEAN_MOTION_DDOT>0</MEAN_MOTION_DDOT></tleParameters></data></segment></body></omm>
<omm id="CCSDS_OMM_VERS" version="2.0">
<header><CREATION_DATE/><ORIGINATOR/></header><body><segment><metadata><OBJECT_NAME>ORBCOMM FM27</OBJECT_NAME><OBJECT_ID>1998-053G</OBJECT_ID><CENTER_NAME>EARTH</CENTER_NAME><REF_FRAME>TEME</REF_FRAME><TIME_SYSTEM>UTC</TIME_SYSTEM><MEAN_ELEMENT_THEORY>SGP4</MEAN_ELEMENT_THEORY></metadata><data><meanElements><EPOCH>2024-09-25T17:53:27.051072</EPOCH><MEAN_MOTION>14.36438957</MEAN_MOTION><ECCENTRICITY>.0001285</ECCENTRICITY><INCLINATION>45.0051</INCLINATION><RA_OF_ASC_NODE>80.1083</RA_OF_ASC_NODE><ARG_OF_PERICENTER>179.2964</ARG_OF_PERICENTER><MEAN_ANOMALY>180.7886</MEAN_ANOMALY></meanElements><tleParameters><EPHEMERIS_TYPE>0</EPHEMERIS_TYPE><CLASSIFICATION_TYPE>U</CLASSIFICATION_TYPE><NORAD_CAT_ID>25481</NORAD_CAT_ID><ELEMENT_SET_NO>999</ELEMENT_SET_NO><REV_AT_EPOCH>35962</REV_AT_EPOCH><BSTAR>.13132E-2</BSTAR><MEAN_MOTION_DOT>.3745E-4</MEAN_MOTION_DOT><MEAN_MOTION_DDOT>0</MEAN_MOTION_DDOT></tleParameters></data></segment></body></omm>
<omm id="CCSDS_OMM_VERS" version="2.0">
<header><CREATION_DATE/><ORIGINATOR/></header><body><segment><metadata><OBJECT_NAME>ORBCOMM FM28</OBJECT_NAME><OBJECT_ID>1998-053H</OBJECT_ID><CENTER_NAME>EARTH</CENTER_NAME><REF_FRAME>TEME</REF_FRAME><TIME_SYSTEM>UTC</TIME_SYSTEM><MEAN_ELEMENT_THEORY>SGP4</MEAN_ELEMENT_THEORY></metadata><data><meanElements><EPOCH>2024-09-25T18:17:30.300864</EPOCH><MEAN_MOTION>14.36806553</MEAN_MOTION><ECCENTRICITY>.0001978</ECCENTRICITY><INCLINATION>45.0071</INCLINATION><RA_OF_ASC_NODE>18.0638</RA_OF_ASC_NODE><ARG_OF_PERICENTER>57.8253</ARG_OF_PERICENTER><MEAN_ANOMALY>302.2787</MEAN_ANOMALY></meanElements><tleParameters><EPHEMERIS_TYPE>0</EPHEMERIS_TYPE><CLASSIFICATION_TYPE>U</CLASSIFICATION_TYPE><NORAD_CAT_ID>25482</NORAD_CAT_ID><ELEMENT_SET_NO>999</ELEMENT_SET_NO><REV_AT_EPOCH>36030</REV_AT_EPOCH><BSTAR>.11582E-2</BSTAR><MEAN_MOTION_DOT>.3311E-4</MEAN_MOTION_DOT><MEAN_MOTION_DDOT>0</MEAN_MOTION_DDOT></tleParameters></data></segment></body></omm>
<omm id="CCSDS_OMM_VERS" version="2.0">
<header><CREATION_DATE/><ORIGINATOR/></header><body><segment><metadata><OBJECT_NAME>ORBCOMM FM30</OBJECT_NAME><OBJECT_ID>1999-065A</OBJECT_ID><CENTER_NAME>EARTH</CENTER_NAME><REF_FRAME>TEME</REF_FRAME><TIME_SYSTEM>UTC</TIME_SYSTEM><MEAN_ELEMENT_THEORY>SGP4</MEAN_ELEMENT_THEORY></metadata><data><meanElements><EPOCH>2024-09-26T02:50:04.922592</EPOCH><MEAN_MOTION>14.35908153</MEAN_MOTION><ECCENTRICITY>.0004023</ECCENTRICITY><INCLINATION>45.0299</INCLINATION><RA_OF_ASC_NODE>258.5166</RA_OF_ASC_NODE><ARG_OF_PERICENTER>127.0536</ARG_OF_PERICENTER><MEAN_ANOMALY>233.0681</MEAN_ANOMALY></meanElements><tleParameters><EPHEMERIS_TYPE>0</EPHEMERIS_TYPE><CLASSIFICATION_TYPE>U</CLASSIFICATION_TYPE><NORAD_CAT_ID>25980</NORAD_CAT_ID><ELEMENT_SET_NO>999</ELEMENT_SET_NO><REV_AT_EPOCH>29700</REV_AT_EPOCH><BSTAR>.10811E-2</BSTAR><MEAN_MOTION_DOT>.3024E-4</MEAN_MOTION_DOT><MEAN_MOTION_DDOT>0</MEAN_MOTION_DDOT></tleParameters></data></segment></body></omm>
<omm id="CCSDS_OMM_VERS" version="2.0">
<header><CREATION_DATE/><ORIGINATOR/></header><body><segment><metadata><OBJECT_NAME>ORBCOMM FM32</OBJECT_NAME><OBJECT_ID>1999-065C</OBJECT_ID><CENTER_NAME>EARTH</CENTER_NAME><REF_FRAME>TEME</REF_FRAME><TIME_SYSTEM>UTC</TIME_SYSTEM><MEAN_ELEMENT_THEORY>SGP4</MEAN_ELEMENT_THEORY></metadata><data><meanElements><EPOCH>2024-09-26T07:13:55.604064</EPOCH><MEAN_MOTION>14.34905105</MEAN_MOTION><ECCENTRICITY>.0003982</ECCENTRICITY><INCLINATION>45.0145</INCLINATION><RA_OF_ASC_NODE>266.0351</RA_OF_ASC_NODE><ARG_OF_PERICENTER>170.2020</ARG_OF_PERICENTER><MEAN_ANOMALY>189.8905</MEAN_ANOMALY></meanElements><tleParameters><EPHEMERIS_TYPE>0</EPHEMERIS_TYPE><CLASSIFICATION_TYPE>U</CLASSIFICATION_TYPE><NORAD_CAT_ID>25982</NORAD_CAT_ID><ELEMENT_SET_NO>999</ELEMENT_SET_NO><REV_AT_EPOCH>29680</REV_AT_EPOCH><BSTAR>.11058E-2</BSTAR><MEAN_MOTION_DOT>.3032E-4</MEAN_MOTION_DOT><MEAN_MOTION_DDOT>0</MEAN_MOTION_DDOT></tleParameters></data></segment></body></omm>

</ndm>
