ORBCOMM FM25            
1 25479U 98053E   24270.52123911  .00003673  00000+0  12886-2 0  9996
2 25479  45.0066  76.1818 0002519   1.6688 358.4168 14.36449130359802
ORBCOMM FM26            
1 25480U 98053F   24270.51725675  .00003124  00000+0  11184-2 0  9993
2 25480  45.0068  70.9639 0004650  29.0669 331.0437 14.35762383359836
ORBCOMM FM27            
1 25481U 98053G   24269.74545198  .00003745  00000+0  13132-2 0  9991
2 25481  45.0051  80.1083 0001285 179.2964 180.7886 14.36438957359624
ORBCOMM FM28            
1 25482U 98053H   24269.76215626  .00003311  00000+0  11582-2 0  9990
2 25482  45.0071  18.0638 0001978  57.8253 302.2787 14.36806553360303
ORBCOMM FM30            
1 25980U 99065A   24270.11811253  .00003024  00000+0  10811-2 0  9991
2 25980  45.0299 258.5166 0004023 127.0536 233.0681 14.35908153297001
ORBCOMM FM32            
1 25982U 99065C   24270.30133801  .00003032  00000+0  11058-2 0  9993
2 25982  45.0145 266.0351 0003982 170.2020 189.8905 14.34905105296801
